ONEWEB-0393             
1 50473U 21132E   23258.92231711  .00000020  00000+0  17508-4 0  9990
2 50473  87.9230 205.5807 0002003  70.5302 289.6046 13.17647700 87016
ONEWEB-0394             
1 50474U 21132F   23259.03771099  .00000121  00000+0  27346-3 0  9994
2 50474  87.9300 175.3345 0001825  78.5294 281.6043 13.18686495 90394
ONEWEB-0395             
1 50475U 21132G   23258.95616781  .00000443  00000+0  12139-2 0  9991
2 50475  87.8942 220.7721 0001832  73.7041 286.4288 13.11417952 85238
ONEWEB-0396             
1 50476U 21132H   23259.03139524  .00000111  00000+0  24815-3 0  9994
2 50476  87.9299 175.3276 0001673  77.5409 282.5910 13.18685006 90439
ONEWEB-0397             
1 50477U 21132J   23258.74263885 -.00000008  00000+0 -52824-4 0  9999
2 50477  87.9300 175.3857 0001571  77.8966 282.2342 13.18685839 90379
ONEWEB-0398             
1 50478U 21132K   23258.92436270 -.00000730  00000+0 -20964-2 0  9990
2 50478  87.8938 220.7729 0002107  64.2375 295.8971 13.11418396 85130
ONEWEB-0399             
1 50479U 21132L   23258.45386736 -.00000261  00000+0 -77084-3 0  9995
2 50479  87.8936 220.8771 0001978  89.7430 270.3925 13.11419069 85063
ONEWEB-0400             
1 50480U 21132M   23258.72156747  .00000358  00000+0  87574-3 0  9994
2 50480  87.9225 175.4228 0002586  65.0356 295.1045 13.18685971 90371
